SCD 1                   
1 22490U 93009B   22282.56483406  .00000627  00000+0  12431-3 0  9998
2 22490  24.9693 232.9292 0042642 301.0454 220.2134 14.44729755566072
TECHSAT 1B (GO-32)      
1 25397U 98043D   22282.48649428  .00000149  00000+0  84825-4 0  9995
2 25397  98.8303 233.3150 0002089 115.8167 244.3227 14.23776636259650
SCD 2                   
1 25504U 98060A   22282.45238047  .00000548  00000+0  10500-3 0  9993
2 25504  24.9954  89.0196 0017033 306.3892  71.6941 14.44241176265341
LANDSAT 7               
1 25682U 99020A   22282.48820165  .00000480  00000+0  10959-3 0  9991
2 25682  97.9677 326.1914 0001748  89.8527 270.2892 14.59818157249201
DLR-TUBSAT              
1 25757U 99029B   22282.56313062  .00000209  00000+0  63890-4 0  9997
2 25757  98.4977 226.2899 0015319 127.3986 232.8605 14.51525201237830
TERRA                   
1 25994U 99068A   22282.39487351  .00000634  00000+0  15034-3 0  9995
2 25994  98.1270 351.6442 0001026  98.5872 323.9715 14.57173865213093
MAROC-TUBSAT            
1 27004U 01056D   22282.37829524 -.00000030  00000+0  17313-4 0  9993
2 27004  99.6440  62.8552 0019832   1.6018  53.1424 13.70161294 41743
AQUA                    
1 27424U 02022A   22282.53401869  .00001362  00000+0  31032-3 0  9990
2 27424  98.2558 223.3886 0000773  89.9298 329.6779 14.57426288 86804
IRS-P6 (RESOURCESAT-1)  
1 28051U 03046A   22282.45062960  .00000232  00000+0  95725-4 0  9995
2 28051  98.3949 350.2260 0059424  39.6610 320.8915 14.34219738987360
SHIYAN 1 (SY-1)         
1 28220U 04012A   22282.50907076  .00006372  00000+0  48421-3 0  9990
2 28220  97.9860 277.9333 0009333 322.7941  37.2635 15.02499027  7142
AURA                    
1 28376U 04026A   22282.55637272  .00001359  00000+0  31171-3 0  9994
2 28376  98.2178 224.2907 0001142  85.6468 274.4861 14.57098097969842
IRS-P5 (CARTOSAT-1)     
1 28649U 05017A   22282.42160545  .00001823  00000+0  22338-3 0  9999
2 28649  97.7066 339.0773 0001630 144.2484 215.8840 14.84322103943647
SINAH 1                 
1 28893U 05043D   22282.57133012  .00000687  00000+0  14686-3 0  9998
2 28893  98.1257  44.0973 0015350 170.7502 189.3985 14.61767744903627
EROS B                  
1 29079U 06014A   22282.39978600  .00021919  00000+0  94323-3 0  9991
2 29079  97.3756  41.4529 0003764 190.9857 254.4522 15.22629275913738
RESURS-DK 1             
1 29228U 06021A   22282.19601245  .00002774  00000+0  21015-3 0  9997
2 29228  69.9374 199.0921 0007494 256.2390 103.7937 15.03493986899470
ARIRANG-2 (KOMPSAT-2)   
1 29268U 06031A   22282.20631135  .00000605  00000+0  12729-3 0  9998
2 29268  97.9374 146.5123 0015335  22.2970 337.8899 14.62831412864523
LAPAN-TUBSAT            
1 29709U 07001A   22282.55172862  .00000915  00000+0  12034-3 0  9994
2 29709  97.9802 244.8703 0011425 242.9392 117.0676 14.82589700851417
CARTOSAT-2 (IRS-P7)     
1 29710U 07001B   22282.28171966  .00028027  00000+0  63864-3 0  9991
2 29710  97.8739  34.6504 0141439  17.7005 342.9091 15.32968680853651
HAIYANG-1B              
1 31113U 07010A   22282.50682094  .00000133  00000+0  67017-4 0  9998
2 31113  98.3143 302.6295 0012832 231.6216 128.3815 14.30338125808816
COSMO-SKYMED 1          
1 31598U 07023A   22282.15712993 -.00000811  00000+0 -95310-4 0  9994
2 31598  97.8902 104.2001 0001637  86.3543 273.7967 14.82143140829803
TERRASAR-X              
1 31698U 07026A   22282.40808057  .00000073  00000+0  66858-5 0  9997
2 31698  97.4467 288.3932 0001795  80.6728  55.4489 15.19149974849415
WORLDVIEW-1 (WV-1)      
1 32060U 07041A   22282.29598271  .00011892  00000+0  48912-3 0  9999
2 32060  97.3931  40.1421 0006170  70.2766 289.9137 15.24287828837733
YAOGAN 3                
1 32289U 07055A   22282.20864697  .00002125  00000+0  27710-3 0  9998
2 32289  97.9439 303.1951 0001844 106.0598 254.0830 14.81608685805883
COSMO-SKYMED 2          
1 32376U 07059A   22282.19086693 -.00001748  00000+0 -21310-3 0  9991
2 32376  97.8899 104.2333 0001359  88.9469 271.1785 14.82149733802554
RADARSAT-2              
1 32382U 07061A   22282.25020925  .00000214  00000+0  10000-3 0  9993
2 32382  98.5792 287.5417 0001124 102.0491 315.4941 14.29985120773565
CARTOSAT-2A             
1 32783U 08021A   22282.17244259  .00001193  00000+0  16959-3 0  9990
2 32783  97.9545 341.1842 0013255 156.0472 204.1364 14.78665990779826
HUANJING 1A (HJ-1A)     
1 33320U 08041A   22282.57177457  .00000732  00000+0  10812-3 0  9999
2 33320  97.6702 310.2371 0019944 217.8726 142.1108 14.77937140759248
HUANJING 1B (HJ-1B)     
1 33321U 08041B   22282.59089919  .00001607  00000+0  22808-3 0  9997
2 33321  97.6864 314.0496 0032827 237.9520 121.8533 14.77921722759243
GEOEYE 1                
1 33331U 08042A   22282.18557099  .00001269  00000+0  24886-3 0  9995
2 33331  98.1140 355.4940 0007842 281.3210  78.7166 14.64399342753012
THEOS                   
1 33396U 08049A   22282.16082477  .00000232  00000+0  12946-3 0  9997
2 33396  98.7386 348.5654 0000960 108.3630 335.9168 14.20014156726800
COSMO-SKYMED 3          
1 33412U 08054A   22282.18819624  .00001505  00000+0  15366-3 0  9999
2 33412  97.8896 106.0721 0019005 101.9141 258.4237 14.92026458755134
YAOGAN 4                
1 33446U 08061A   22282.56430186  .00001311  00000+0  19044-3 0  9990
2 33446  97.8242 219.2609 0017399 121.8918 238.3988 14.77501600746449
GOSAT (IBUKI)           
1 33492U 09002A   22282.55381761  .00001360  00000+0  24855-3 0  9990
2 33492  98.1253  34.2604 0000943  87.9892 272.1420 14.67513482734417
YAOGAN 6                
1 34839U 09021A   22282.46191342  .00010152  00000+0  34329-3 0  9997
2 34839  97.0947 257.4153 0023598 247.7939 112.0799 15.30541536748663
DEIMOS-1                
1 35681U 09041A   22282.58926394  .00000668  00000+0  11349-3 0  9999
2 35681  97.7024 127.7448 0001032 152.6237 207.5033 14.72130251708561
DUBAISAT-1              
1 35682U 09041B   22282.30749419  .00001631  00000+0  28367-3 0  9990
2 35682  97.8185  70.5965 0012718  67.8677 292.3891 14.69336559707005
OCEANSAT-2              
1 35931U 09051A   22282.51439516 -.00040472  00000+0 -14984-1 0  9991
2 35931  98.2932  12.9874 0006533 129.8877 230.2894 14.32581653690579
WORLDVIEW-2 (WV-2)      
1 35946U 09055A   22282.20578777  .00000275  00000+0  10608-3 0  9996
2 35946  98.4789 355.8746 0001837  77.6435 282.4975 14.37727420682250
SMOS                    
1 36036U 09059A   22282.49157172  .00000500  00000+0  17350-3 0  9996
2 36036  98.4436 108.3712 0001320  81.4903 278.6435 14.39741648679810
YAOGAN 7                
1 36110U 09069A   22282.56238088  .00001234  00000+0  18989-3 0  9998
2 36110  98.1902 143.7040 0027011  43.8804 316.4627 14.75108103690968
TANDEM-X                
1 36605U 10030A   22281.61459324 -.00000927  00000+0 -40960-4 0  9995
2 36605  97.4457 287.6109 0001869  99.0727  20.2616 15.19143832682043
CARTOSAT-2B             
1 36795U 10035A   22282.61606586  .00001322  00000+0  18741-3 0  9994
2 36795  97.9487 341.6917 0012602 231.4995 128.5100 14.78637010660939
YAOGAN 10               
1 36834U 10038A   22282.56110931  .00000895  00000+0  12131-3 0  9990
2 36834  97.9767 292.8576 0001559  92.2498 267.8904 14.81373894657679
COSMO-SKYMED 4          
1 37216U 10060A   22282.54108972  .00000746  00000+0  10022-3 0  9992
2 37216  97.8900 104.5772 0001384  80.5604 279.5796 14.82163702645159
RESOURCESAT-2           
1 37387U 11015A   22282.42740489 -.00000033  00000+0  45242-5 0  9998
2 37387  98.6534 352.7868 0005360  99.8664 260.3151 14.21652382595359
HAIYANG-2A              
1 37781U 11043A   22282.51555927  .00000007  00000+0  50379-4 0  9994
2 37781  99.3205 286.4025 0000183  77.1247 282.9925 13.78747320561352
RASAT                   
1 37791U 11044D   22282.56582229  .00000766  00000+0  15111-3 0  9992
2 37791  98.0952  13.7867 0022826 128.3093 232.0182 14.65098907595826
MEGHA-TROPIQUES         
1 37838U 11058A   22282.32047265  .00010511  00000+0  61969-3 0  9990
2 37838  19.9681 301.5931 0314495 121.9338 241.2058 14.75595648500045
SRMSAT                  
1 37841U 11058D   22282.43957338  .00000523  00000+0  14222-3 0  9999
2 37841  19.9721 285.9060 0011968 155.5264 355.8766 14.10779668567352
YAOGAN 13               
1 37941U 11072A   22282.43848760  .00010854  00000+0  47280-3 0  9992
2 37941  97.6427 234.2691 0002890  45.9663 102.6097 15.22388619602132
PLEIADES 1A             
1 38012U 11076F   22282.46497552  .00000467  00000+0  11017-3 0  9996
2 38012  98.1917 355.8791 0001411  77.6139 282.5248 14.58565736575692
ZIYUAN 1-02C (ZY 1-02C) 
1 38038U 11079A   22282.54535353  .00000308  00000+0  12289-3 0  9994
2 38038  98.5780 346.5829 0005605 288.1331  71.9256 14.35348538565853
ZIYUAN 3-1 (ZY 3-1)     
1 38046U 12001A   22282.46874700  .00009173  00000+0  41098-3 0  9991
2 38046  97.3309 350.4941 0002007  90.8844 279.5928 15.21458109596943
ARIRANG-3 (KOMPSAT-3)   
1 38338U 12025B   22282.54270592  .00000809  00000+0  17074-3 0  9993
2 38338  98.1873 221.5292 0011929  23.6733 336.5033 14.61971142554645
KANOPUS-V 1             
1 38707U 12039A   22282.54414142  .00007812  00000+0  33433-3 0  9997
2 38707  97.4669 203.9194 0002104  81.5875  22.3804 15.23083861566752
EXACTVIEW-1 (ADS-1B)    
1 38709U 12039C   22282.44571232  .00000124  00000+0  74192-4 0  9999
2 38709  98.9989 351.7001 0011966  91.3212 268.9337 14.24124709530964
SPOT 6                  
1 38755U 12047A   22282.47998827  .00000435  00000+0  10361-3 0  9997
2 38755  98.2236 348.0025 0001133  80.5155 279.6190 14.58527593536775
PLEIADES 1B             
1 39019U 12068A   22282.56758115  .00000457  00000+0  10808-3 0  9998
2 39019  98.1870 355.9069 0001256  87.9553 272.1803 14.58551077524563
GOKTURK 2               
1 39030U 12073A   22282.56700854  .00000664  00000+0  11091-3 0  9999
2 39030  97.8364 157.7490 0001602  43.9641 316.1713 14.72941198526150
LANDSAT 8               
1 39084U 13008A   22282.48490592  .00000569  00000+0  13635-3 0  9993
2 39084  98.2123 351.2978 0001297  90.7575 269.3772 14.57126340501788
